[{"OBJECT_NAME":"STARLINK-35067","OBJECT_ID":"2025-200H","EPOCH":"2026-03-09T17:26:36.614688","MEAN_MOTION":15.05647209,"ECCENTRICITY":0.00012821,"INCLINATION":97.6024,"RA_OF_ASC_NODE":139.7902,"ARG_OF_PERICENTER":92.5355,"MEAN_ANOMALY":267.6019,"EPHEMERIS_TYPE":0,"CLASSIFICATION_TYPE":"U","NORAD_CAT_ID":65527,"ELEMENT_SET_NO":999,"REV_AT_EPOCH":2913,"BSTAR":0.00019351418,"MEAN_MOTION_DOT":2.732e-5,"MEAN_MOTION_DDOT":0},{"OBJECT_NAME":"FREGAT DEB","OBJECT_ID":"2011-037DX","EPOCH":"2026-03-08T04:39:11.830752","MEAN_MOTION":12.08240486,"ECCENTRICITY":0.15315601,"INCLINATION":51.4339,"RA_OF_ASC_NODE":136.4245,"ARG_OF_PERICENTER":350.0856,"MEAN_ANOMALY":7.269,"EPHEMERIS_TYPE":0,"CLASSIFICATION_TYPE":"U","NORAD_CAT_ID":45902,"ELEMENT_SET_NO":999,"REV_AT_EPOCH":23963,"BSTAR":0.003151211,"MEAN_MOTION_DOT":0.00019658,"MEAN_MOTION_DDOT":0}]
